CUTE-1 (CO-55)          
1 27844U 03031E   19205.60391954  .00000023  00000-0  29958-4 0  9998
2 27844  98.6835 213.2797 0008641 290.2025  69.8223 14.22186379833351
CUBESAT XI-IV (CO-57)   
1 27848U 03031J   19205.53591300  .00000016  00000-0  26961-4 0  9994
2 27848  98.6912 213.7206 0008678 303.3379  56.6967 14.21780669833236
CUBESAT XI-V            
1 28895U 05043F   19206.08215189  .00000090  00000-0  26091-4 0  9997
2 28895  97.9641 347.5756 0015689 233.8084 126.1669 14.63677097732805
CUTE-1.7+APD II (CO-65) 
1 32785U 08021C   19206.19228732  .00000116  00000-0  18132-4 0  9995
2 32785  97.5501 204.1862 0014129 136.7166 223.5164 14.88323452609114
AAUSAT-II               
1 32788U 08021F   19205.93276040  .00000452  00000-0  46557-4 0  9999
2 32788  97.4961 220.0599 0013514  80.0894 280.1852 14.94753674610234
DELFI-C3 (DO-64)        
1 32789U 08021G   19206.13786280  .00000869  00000-0  61987-4 0  9991
2 32789  97.4620 254.6992 0012197   9.3269 350.8183 15.07015178612456
SEEDS II (CO-66)        
1 32791U 08021J   19205.74659991  .00000210  00000-0  26617-4 0  9999
2 32791  97.5279 209.7714 0014861 114.8484 245.4282 14.90838876609403
SWISSCUBE               
1 35932U 09051B   19205.66853300  .00000080  00000-0  29235-4 0  9998
2 35932  98.5914  12.7000 0008670  60.6652 299.5409 14.56294388521978
BEESAT-1                
1 35933U 09051C   19206.15024067  .00000074  00000-0  27629-4 0  9992
2 35933  98.5937  14.9706 0007000  71.6536 288.5422 14.56382517522190
ITUPSAT1                
1 35935U 09051E   19205.67900626  .00000038  00000-0  19885-4 0  9999
2 35935  98.6049  14.7209 0009284  69.4055 290.8136 14.55540956521841
TISAT 1                 
1 36799U 10035E   19206.38870018  .00000215  00000-0  27823-4 0  9990
2 36799  98.1602 359.7668 0011492 331.3873  28.6712 14.91122268490231
M-CUBED & EXP-1 PRIME   
1 37855U 11061F   19205.68803800  .00000852  00000-0  50607-4 0  9994
2 37855 101.7113 119.7612 0173397 330.1911  28.9509 15.05495775422198
STRAND-1                
1 39090U 13009E   19206.18111997 -.00000002  00000-0  14650-4 0  9992
2 39090  98.4858  51.5219 0009171 172.9116 187.2200 14.35090916335620
SOMP                    
1 39134U 13015E   19205.67391534  .00000483  00000-0  31466-4 0  9994
2 39134  64.8627 263.8591 0033015 297.1449  62.6313 15.20209471346068
BEESAT-3                
1 39135U 13015F   19206.38484215  .00000333  00000-0  26401-4 0  9990
2 39135  64.8696 280.3703 0026277 314.1182  45.7782 15.17514042345813
BEESAT-2                
1 39136U 13015G   19206.23789955  .00000165  00000-0  18354-4 0  9995
2 39136  64.8703 284.7746 0021005 299.6636  60.2398 15.16940526345716
NEE-01 PEGASO           
1 39151U 13018B   19206.25391794  .00000066  00000-0  15734-4 0  9996
2 39151  97.9731 302.4148 0018503  84.4450 275.8872 14.80055858337131
ESTCUBE 1               
1 39161U 13021C   19206.22060567  .00000056  00000-0  16646-4 0  9991
2 39161  97.9863 290.4536 0008942 203.3560 156.7246 14.72212156333747
POPACS 1                
1 39268U 13055D   19206.21617458  .00003439  00000-0  93192-4 0  9991
2 39268  81.0023 282.5794 0626792 115.6398 251.0900 14.37174867302286
POPACS 2                
1 39269U 13055E   19205.28656565  .00002780  00000-0  80087-4 0  9997
2 39269  81.0163 314.0673 0683904 197.3531 160.3205 14.23975741300332
POPACS 3                
1 39270U 13055F   19206.06614993  .00000967  00000-0  30326-4 0  9991
2 39270  81.0186 330.5216 0713179 245.1668 107.3750 14.15874378299345
ZACUBE-1 (TSHEPISOSAT)  
1 39417U 13066B   19205.98349668  .00000111  00000-0  20464-4 0  9993
2 39417  97.5618 217.4452 0057331 275.2036  84.2637 14.81127424306419
WNISAT-1                
1 39423U 13066H   19206.40564967 -.00000014  00000-0  69788-5 0  9995
2 39423  97.7760 145.6595 0174781 198.3879 161.0949 14.53048151300787
TRITON-1                
1 39427U 13066M   19205.92562353  .00000169  00000-0  34655-4 0  9996
2 39427  97.6785 181.0682 0115087  49.9623 311.1612 14.67854289303465
GOMX-1                  
1 39430U 13066Q   19206.37603741  .00000095  00000-0  25811-4 0  9999
2 39430  97.7495 160.5182 0151939 138.1851 223.1092 14.59262975301957
CUBEBUG-2 (LO-74)       
1 39440U 13066AA  19205.88760392  .00000116  00000-0  23304-4 0  9990
2 39440  97.6028 202.1885 0079442 328.4204  31.2251 14.75865523304118
NEE-02 KRYSAOR          
1 39441U 13066AB  19205.88629292  .00000066  00000-0  16627-4 0  9998
2 39441  97.6071 199.9425 0081135 335.5628  24.1744 14.74914507303978
FUNCUBE-1 (AO-73)       
1 39444U 13066AE  19205.62641621  .00000152  00000-0  25164-4 0  9995
2 39444  97.5597 219.0889 0056433 269.9584  89.5163 14.81948211305255
UWE-3                   
1 39446U 13066AG  19206.23581673  .00000117  00000-0  22365-4 0  9996
2 39446  97.5813 209.5794 0068654 301.5533  57.8987 14.78400081304662
BRITE-CA1 (TORONTO)     
1 40020U 14033L   19206.11124717 -.00000011  00000-0  63934-5 0  9992
2 40020  97.7453  47.9225 0088456  41.1396 319.6433 14.66579655272641
DUCHIFAT-1              
1 40021U 14033M   19205.79242791  .00000242  00000-0  30569-4 0  9991
2 40021  97.9233 130.5058 0011556 295.0494  64.9524 14.90646826276927
NANOSATC-BR1            
1 40024U 14033Q   19205.83826691  .00000116  00000-0  18008-4 0  9990
2 40024  97.9127 127.8827 0010911 298.9023  61.1099 14.89859047276306
QB50P1                  
1 40025U 14033R   19206.19126775  .00000172  00000-0  24279-4 0  9996
2 40025  97.9049 125.8164 0011263 303.9661  56.0485 14.88956717276750
QB50P2                  
1 40032U 14033Y   19206.20427523  .00000118  00000-0  18764-4 0  9993
2 40032  97.8972 123.9296 0010585 300.0011  60.0155 14.88490835276674
PERSEUS-M2              
1 40037U 14033AD  19205.84124456  .00000017  00000-0  81670-5 0  9991
2 40037  97.8897 119.6583 0013351 314.3065  45.7055 14.86465149276348
PERSEUS-M1              
1 40039U 14033AF  19206.30554660 -.00000002  00000-0  60143-5 0  9996
2 40039  97.8879 119.1942 0013135 309.9089  50.0971 14.86085455276344
POLYITAN-1              
1 40042U 14033AJ  19206.19491758  .00000173  00000-0  24581-4 0  9998
2 40042  97.9128 126.1493 0013318 292.3968  67.5837 14.88671095276661
TIGRISAT                
1 40043U 14033AK  19205.59641461  .00000052  00000-0  15220-4 0  9996
2 40043  97.7532  71.8956 0059603 342.4208  17.4938 14.74276746273897
AEROCUBE 6A             
1 40045U 14033AM  19206.18837740  .00000111  00000-0  23345-4 0  9994
2 40045  97.7759  76.3956 0057464 333.3891  26.4372 14.75400582273946
AEROCUBE 6B             
1 40046U 14033AN  19206.19405828  .00000135  00000-0  26793-4 0  9990
2 40046  97.7692  75.9985 0056527 332.5138  27.3085 14.75381578274084
UKUBE-1                 
1 40074U 14037F   19206.37585946  .00000133  00000-0  23114-4 0  9997
2 40074  98.4412  10.4240 0006217  93.0149 267.1780 14.84068564273096
BRITE-PL2 (HEWELIUSZ)   
1 40119U 14049B   19206.25568777  .00000030  00000-0  10054-4 0  9995
2 40119  97.9051 296.5749 0018919 101.0098 259.3245 14.84412187267091
FIREBIRD 4              
1 40378U 15003C   19206.17026011  .00001422  00000-0  59830-4 0  9995
2 40378  99.1152 193.9564 0126512 329.3686  30.0198 15.18897036247464
GRIFEX                  
1 40379U 15003D   19205.91086895  .00001116  00000-0  51623-4 0  9995
2 40379  99.1145 187.4859 0134988 349.2618  10.5733 15.15551202247067
EXOCUBE (CP10)          
1 40380U 15003E   19205.94126643  .00001093  00000-0  52811-4 0  9990
2 40380  99.1170 184.1582 0140124   0.3443 359.7855 15.13567599246846
TIANWANG 1C (TW-1C)     
1 40926U 15051B   19206.37841727  .00006921  00000-0  99881-4 0  9997
2 40926  97.1327 252.5133 0006474 226.8341 259.3988 15.56275078215862
TIANWANG 1A (TW-1A)     
1 40928U 15051D   19206.37458660  .00001799  00000-0  45680-4 0  9995
2 40928  97.1434 236.8665 0009639 306.1162 111.2365 15.40925145214827
EXACTVIEW 9             
1 40936U 15052G   19206.36438765  .00000731  00000-0  13122-4 0  9999
2 40936   6.0024 159.6099 0010934 299.5894  60.3144 14.76494970206656
ATHENOXAT 1             
1 41168U 15077C   19205.48898748  .00001316  00000-0  33837-4 0  9992
2 41168  14.9892 313.7301 0011558 232.0503 127.8773 15.13672260199410
GALASSIA                
1 41170U 15077E   19206.39663289  .00001308  00000-0  32867-4 0  9999
2 41170  14.9895 300.0905 0013157 269.6767  90.2046 15.14003329199613
VELOX-II                
1 41171U 15077F   19205.53860079  .00001088  00000-0  24218-4 0  9997
2 41171  14.9923 340.1929 0008776 172.9388 187.1057 15.11238919199185
HORYU-4                 
1 41340U 16012D   19206.33968078  .00000276  00000-0  14275-4 0  9992
2 41340  31.0043 260.9728 0013893 132.4226 227.7587 15.01279475188526
E-ST@R-II               
1 41459U 16025D   19206.22739587  .00000324  00000-0  21277-4 0  9990
2 41459  98.1011 294.5711 0166367 235.1237 123.4250 15.05497575178041
AAUSAT 4                
1 41460U 16025E   19206.22391443  .00000500  00000-0  29574-4 0  9991
2 41460  98.0951 295.8981 0156581 227.6227 131.1683 15.07391170178176
DIWATA-1                
1 41463U 98067HT  19206.13160034  .00017077  00000-0  81933-4 0  9994
2 41463  51.6310  57.4854 0000450 128.0978 326.1682 15.82851905185548
BEESAT-4                
1 41619U 16040W   19205.84464807  .00000753  00000-0  34774-4 0  9994
2 41619  97.3651 267.3918 0009650 253.9169 106.1005 15.23182536159368
CANX-7                  
1 41788U 16059F   19206.37389051  .00003326  00000-0  50822-3 0  9997
2 41788  98.2404 282.3509 0024460 249.2386 110.6198 14.74303268151412
RAVAN                   
1 41849U 16067B   19206.19116814 -.00000376  00000-0 -26438-4 0  9990
2 41849  97.9221 305.8626 0007280 259.1531 100.8872 14.98251407147460
CELTEE 1                
1 41850U 16067C   19206.23438257  .00000352  00000-0  35878-4 0  9995
2 41850  97.9192 304.5140 0007030 259.8978 100.1450 14.97027135147396
